KUIPER-00028            
1 63741U 25088T   26066.13067365  .00003200  00000+0  44861-3 0  9995
2 63741  51.8984 104.3687 0000758  51.2089 308.8941 14.79926001 47689
KUIPER-00029            
1 63742U 25088U   26065.86864492 -.00114249  00000+0 -14083-1 0  9990
2 63742  51.8999 103.1287 0000659 127.6020 232.5003 14.83146545 47204
KUIPER-00030            
1 63743U 25088V   26066.14562581  .00004314  00000+0  59425-3 0  9997
2 63743  51.8998 121.7954 0010826  63.0196 297.1870 14.79943666 47253
KUIPER-00031            
1 63744U 25088W   26066.07753076  .00005184  00000+0  64916-3 0  9998
2 63744  51.9004 107.3096 0001908 137.4417 222.6695 14.83637019 47168
KUIPER-00032            
1 63745U 25088X   26066.13301371  .00019815  00000+0  54423-3 0  9991
2 63745  51.8705  36.5862 0005344 103.9427 256.2154 15.37217041 49150
KUIPER-00033            
1 63746U 25088Y   26065.38801582  .00006627  00000+0  82610-3 0  9993
2 63746  51.9002 140.5379 0000822  42.9589 317.1439 14.83430130 47122
KUIPER-00034            
1 63747U 25088Z   26066.08422576  .00004929  00000+0  62023-3 0  9993
2 63747  51.9003  99.7792 0001794 344.0856  16.0052 14.83520706 47439
KUIPER-00035            
1 63748U 25088AA  26066.19012389  .00006765  00000+0  84576-3 0  9990
2 63748  51.8999 124.9784 0004016  66.9833 293.1554 14.83277386 47146
KUIPER-00037            
1 63749U 25088AB  26066.14290166  .00005551  00000+0  75601-3 0  9998
2 63749  51.8988 124.3218 0000855  61.7791 298.3257 14.79966798 47935
KUIPER-00038            
1 63750U 25088AC  26065.55130788  .00003126  00000+0  43859-3 0  9993
2 63750  51.9044 111.9759 0000886  29.5105 330.5907 14.79957975 47059
KUIPER-00039            
1 64500U 25134A   26065.86166620  .00004381  00000+0  60317-3 0  9999
2 64500  51.8998 245.5975 0001078  68.5085 291.5992 14.79946325 39652
KUIPER-00040            
1 64501U 25134B   26065.51137948  .00004720  00000+0  64628-3 0  9999
2 64501  51.8994 258.2880 0013024 256.5462 103.4049 14.79997679 39446
KUIPER-00041            
1 64502U 25134C   26065.24738240  .00004415  00000+0  62516-3 0  9997
2 64502  51.8984 260.8785 0007213 254.0812 105.9356 14.78717324 39381
KUIPER-00042            
1 64503U 25134D   26065.51411736  .00004650  00000+0  63795-3 0  9997
2 64503  51.8972 255.6339 0007100 270.8636  89.1513 14.79965457 39483
KUIPER-00043            
1 64504U 25134E   26064.89147065  .00004646  00000+0  58233-3 0  9995
2 64504  51.9013 249.9165 0000994 325.3550  34.7349 14.83803217 39516
KUIPER-00044            
1 64505U 25134F   26065.57629698  .00010832  00000+0  14475-2 0  9992
2 64505  51.9031 260.3555 0008066 266.0478  93.9562 14.79917382 39423
KUIPER-00046            
1 64506U 25134G   26065.51308615  .00004425  00000+0  60916-3 0  9993
2 64506  51.8976 257.0983 0000619  96.8411 263.2622 14.79925191 39461
